{
  "links" : {
    "next" : "https://api.nasa.gov/neo/rest/v1/feed?start_date=2008-10-09&end_date=2008-10-09&detailed=true&api_key=t0TVs3DtDT2H8Oy2Zy8m2eVrNsAVKAexjcZXUckd",
    "prev" : "https://api.nasa.gov/neo/rest/v1/feed?start_date=2008-10-07&end_date=2008-10-07&detailed=true&api_key=t0TVs3DtDT2H8Oy2Zy8m2eVrNsAVKAexjcZXUckd",
    "self" : "https://api.nasa.gov/neo/rest/v1/feed?start_date=2008-10-08&end_date=2008-10-08&detailed=true&api_key=t0TVs3DtDT2H8Oy2Zy8m2eVrNsAVKAexjcZXUckd"
  },
  "element_count" : 5,
  "near_earth_objects" : {
    "2008-10-08" : [ {
      "links" : {
        "self" : "https://api.nasa.gov/neo/rest/v1/neo/3430308?api_key=t0TVs3DtDT2H8Oy2Zy8m2eVrNsAVKAexjcZXUckd"
      },
      "neo_reference_id" : "3430308",
      "name" : "(2008 TB4)",
      "nasa_jpl_url" : "http://ssd.jpl.nasa.gov/sbdb.cgi?sstr=3430308",
      "absolute_magnitude_h" : 21.0,
      "estimated_diameter" : {
        "kilometers" : {
          "estimated_diameter_min" : 0.1677084622,
          "estimated_diameter_max" : 0.3750075218
        },
        "meters" : {
          "estimated_diameter_min" : 167.7084621628,
          "estimated_diameter_max" : 375.0075217981
        },
        "miles" : {
          "estimated_diameter_min" : 0.1042091748,
          "estimated_diameter_max" : 0.2330187988
        },
        "feet" : {
          "estimated_diameter_min" : 550.2246310023,
          "estimated_diameter_max" : 1230.3396778159
        }
      },
      "is_potentially_hazardous_asteroid" : false,
      "close_approach_data" : [ {
        "close_approach_date" : "2008-10-08",
        "epoch_date_close_approach" : 1223449200000,
        "relative_velocity" : {
          "kilometers_per_second" : "24.6513053179",
          "kilometers_per_hour" : "88744.6991445887",
          "miles_per_hour" : "55142.5048657029"
        },
        "miss_distance" : {
          "astronomical" : "0.113686693",
          "lunar" : "44.2241249084",
          "kilometers" : "17007288",
          "miles" : "10567839"
        },
        "orbiting_body" : "Earth"
      } ],
      "orbital_data" : {
        "orbit_id" : "11",
        "orbit_determination_date" : "2017-04-06 09:02:40",
        "orbit_uncertainty" : "9",
        "minimum_orbit_intersection" : ".0882685",
        "jupiter_tisserand_invariant" : "3.646",
        "epoch_osculation" : "2454749.5",
        "eccentricity" : ".4465869870981628",
        "semi_major_axis" : "1.820730676020307",
        "inclination" : "41.87526683756647",
        "ascending_node_longitude" : "194.412297797687",
        "orbital_period" : "897.3605868704693",
        "perihelion_distance" : "1.007616049099197",
        "perihelion_argument" : "138.3167961269112",
        "aphelion_distance" : "2.633845302941417",
        "perihelion_time" : "2454714.048219199372",
        "mean_anomaly" : "14.2224221510949",
        "mean_motion" : ".4011765228685764",
        "equinox" : "J2000"
      }
    }, {
      "links" : {
        "self" : "https://api.nasa.gov/neo/rest/v1/neo/3435543?api_key=t0TVs3DtDT2H8Oy2Zy8m2eVrNsAVKAexjcZXUckd"
      },
      "neo_reference_id" : "3435543",
      "name" : "(2008 UE202)",
      "nasa_jpl_url" : "http://ssd.jpl.nasa.gov/sbdb.cgi?sstr=3435543",
      "absolute_magnitude_h" : 21.9,
      "estimated_diameter" : {
        "kilometers" : {
          "estimated_diameter_min" : 0.1108038821,
          "estimated_diameter_max" : 0.2477650126
        },
        "meters" : {
          "estimated_diameter_min" : 110.8038821264,
          "estimated_diameter_max" : 247.7650126055
        },
        "miles" : {
          "estimated_diameter_min" : 0.068850319,
          "estimated_diameter_max" : 0.1539539936
        },
        "feet" : {
          "estimated_diameter_min" : 363.5298086356,
          "estimated_diameter_max" : 812.8773639568
        }
      },
      "is_potentially_hazardous_asteroid" : false,
      "close_approach_data" : [ {
        "close_approach_date" : "2008-10-08",
        "epoch_date_close_approach" : 1223449200000,
        "relative_velocity" : {
          "kilometers_per_second" : "2.2356712204",
          "kilometers_per_hour" : "8048.4163935919",
          "miles_per_hour" : "5000.9729530071"
        },
        "miss_distance" : {
          "astronomical" : "0.2981472625",
          "lunar" : "115.9792861938",
          "kilometers" : "44602196",
          "miles" : "27714520"
        },
        "orbiting_body" : "Earth"
      } ],
      "orbital_data" : {
        "orbit_id" : "12",
        "orbit_determination_date" : "2017-04-06 09:02:19",
        "orbit_uncertainty" : "6",
        "minimum_orbit_intersection" : ".295033",
        "jupiter_tisserand_invariant" : "3.319",
        "epoch_osculation" : "2458000.5",
        "eccentricity" : ".4760095680700814",
        "semi_major_axis" : "2.468502358419204",
        "inclination" : "2.021193079627886",
        "ascending_node_longitude" : "348.4472532841392",
        "orbital_period" : "1416.604922557959",
        "perihelion_distance" : "1.293471617008102",
        "perihelion_argument" : "27.63554024489417",
        "aphelion_distance" : "3.643533099830306",
        "perihelion_time" : "2457580.043181416724",
        "mean_anomaly" : "106.8501543935488",
        "mean_motion" : ".2541287230245883",
        "equinox" : "J2000"
      }
    }, {
      "links" : {
        "self" : "https://api.nasa.gov/neo/rest/v1/neo/3648641?api_key=t0TVs3DtDT2H8Oy2Zy8m2eVrNsAVKAexjcZXUckd"
      },
      "neo_reference_id" : "3648641",
      "name" : "(2013 SO20)",
      "nasa_jpl_url" : "http://ssd.jpl.nasa.gov/sbdb.cgi?sstr=3648641",
      "absolute_magnitude_h" : 21.6,
      "estimated_diameter" : {
        "kilometers" : {
          "estimated_diameter_min" : 0.1272198785,
          "estimated_diameter_max" : 0.2844722965
        },
        "meters" : {
          "estimated_diameter_min" : 127.2198785394,
          "estimated_diameter_max" : 284.4722965033
        },
        "miles" : {
          "estimated_diameter_min" : 0.0790507431,
          "estimated_diameter_max" : 0.1767628354
        },
        "feet" : {
          "estimated_diameter_min" : 417.3880663071,
          "estimated_diameter_max" : 933.3080892598
        }
      },
      "is_potentially_hazardous_asteroid" : false,
      "close_approach_data" : [ {
        "close_approach_date" : "2008-10-08",
        "epoch_date_close_approach" : 1223449200000,
        "relative_velocity" : {
          "kilometers_per_second" : "19.8924744763",
          "kilometers_per_hour" : "71612.9081148503",
          "miles_per_hour" : "44497.4761561413"
        },
        "miss_distance" : {
          "astronomical" : "0.4941514844",
          "lunar" : "192.2249298096",
          "kilometers" : "73924008",
          "miles" : "45934248"
        },
        "orbiting_body" : "Earth"
      } ],
      "orbital_data" : {
        "orbit_id" : "8",
        "orbit_determination_date" : "2017-04-06 08:44:32",
        "orbit_uncertainty" : "7",
        "minimum_orbit_intersection" : ".19623",
        "jupiter_tisserand_invariant" : "4.541",
        "epoch_osculation" : "2458000.5",
        "eccentricity" : ".1635133023541392",
        "semi_major_axis" : "1.415434404790393",
        "inclination" : "32.77100952090963",
        "ascending_node_longitude" : "15.08509081711114",
        "orbital_period" : "615.0820433862001",
        "perihelion_distance" : "1.18399205099745",
        "perihelion_argument" : "21.49247865238731",
        "aphelion_distance" : "1.646876758583335",
        "perihelion_time" : "2457819.831137377113",
        "mean_anomaly" : "105.7432764354028",
        "mean_motion" : ".5852877739985686",
        "equinox" : "J2000"
      }
    } ]
  }
}